{"type": "FeatureCollection", "features": [ {"type": "Feature", "properties": {"norad_id": 66663, "name": "KSLV-II R/B", "group": "last-30-days", "lat": 19.041411140658145, "lon": -96.860371345902, "alt_km": 548.7466935679331, "timestamp": "2025-12-04T09:47:36.304217+00:00", "meta": {"OBJECT_NAME": "KSLV-II R/B", "OBJECT_ID": "2025-274P", "EPOCH": "2025-12-03T17:40:07.524480", "MEAN_MOTION": 14.9720213, "ECCENTRICITY": 0.00461454, "INCLINATION": 97.7399, "RA_OF_ASC_NODE": 265.1649, "ARG_OF_PERICENTER": 348.9678, "MEAN_ANOMALY": 11.0527, "EPHEMERIS_TYPE": 0, "CLASSIFICATION_TYPE": "U", "NORAD_CAT_ID": 66663, "ELEMENT_SET_NO": 999, "REV_AT_EPOCH": 106, "BSTAR": -0.00011329547, "MEAN_MOTION_DOT": -1.401e-05, "MEAN_MOTION_DDOT": 0}, "tle": {"line1": "1 66663U 25274P   25337.73619820 -.00001401  00000+0 -11330-3 0  9991", "line2": "2 66663  97.7399 265.1649 0046145 348.9678  11.0527 14.97202130  1063"}}, "geometry": {"type": "Point", "coordinates": [-96.860371345902, 19.041411140658145]}}, {"type": "Feature", "properties": {"norad_id": 66664, "name": "SOYUZ-MS 28", "group": "last-30-days", "lat": -26.951442862925244, "lon": 159.97095454376952, "alt_km": 423.51503706097355, "timestamp": "2025-12-04T09:47:36.304231+00:00", "meta": {"OBJECT_NAME": "SOYUZ-MS 28", "OBJECT_ID": "2025-275A", "EPOCH": "2025-12-03T21:33:39.276864", "MEAN_MOTION": 15.4928465, "ECCENTRICITY": 0.0003592, "INCLINATION": 51.6303, "RA_OF_ASC_NODE": 186.2514, "ARG_OF_PERICENTER": 201.3576, "MEAN_ANOMALY": 158.7263, "EPHEMERIS_TYPE": 0, "CLASSIFICATION_TYPE": "U", "NORAD_CAT_ID": 66664, "ELEMENT_SET_NO": 999, "REV_AT_EPOCH": 107, "BSTAR": 0.00025253, "MEAN_MOTION_DOT": 0.00013627, "MEAN_MOTION_DDOT": 0}, "tle": {"line1": "1 66664U 25275A   25337.89837126  .00013627  00000+0  25253-3 0  9991", "line2": "2 66664  51.6303 186.2514 0003592 201.3576 158.7263 15.49284650  1072"}}, "geometry": {"type": "Point", "coordinates": [159.97095454376952, -26.951442862925244]}}, {"type": "Feature", "properties": {"norad_id": 66820, "name": "KOMPSAT-7", "group": "last-30-days", "lat": 65.99601475085294, "lon": -93.08670833637275, "alt_km": 572.4576394800843, "timestamp": "2025-12-04T09:47:36.304243+00:00", "meta": {"OBJECT_NAME": "KOMPSAT-7", "OBJECT_ID": "2025-279A", "EPOCH": "2025-12-01T20:35:16.060992", "MEAN_MOTION": 14.98310631, "ECCENTRICITY": 0.00097501, "INCLINATION": 97.6394, "RA_OF_ASC_NODE": 281.9587, "ARG_OF_PERICENTER": 255.3935, "MEAN_ANOMALY": 104.6207, "EPHEMERIS_TYPE": 0, "CLASSIFICATION_TYPE": "U", "NORAD_CAT_ID": 66820, "ELEMENT_SET_NO": 999, "REV_AT_EPOCH": 2, "BSTAR": 8.4407298e-05, "MEAN_MOTION_DOT": 9.47e-06, "MEAN_MOTION_DDOT": 0}, "tle": {"line1": "1 66820U 25279A   25335.85782478  .00000947  00000+0  84407-4 0  9990", "line2": "2 66820  97.6394 281.9587 0009750 255.3935 104.6207 14.98310631    23"}}, "geometry": {"type": "Point", "coordinates": [-93.08670833637275, 65.99601475085294]}}, {"type": "Feature", "properties": {"norad_id": 66877, "name": "DUMMY PAYLOAD", "group": "last-30-days", "lat": 39.568448627818924, "lon": 121.64778531297038, "alt_km": 1325.7837756893732, "timestamp": "2025-12-04T09:47:36.304254+00:00", "meta": {"OBJECT_NAME": "DUMMY PAYLOAD", "OBJECT_ID": "2025-282A", "EPOCH": "2025-12-03T15:09:12.901248", "MEAN_MOTION": 14.3609088, "ECCENTRICITY": 0.08801968, "INCLINATION": 56.9533, "RA_OF_ASC_NODE": 91.9802, "ARG_OF_PERICENTER": 204.505, "MEAN_ANOMALY": 151.1619, "EPHEMERIS_TYPE": 0, "CLASSIFICATION_TYPE": "U", "NORAD_CAT_ID": 66877, "ELEMENT_SET_NO": 999, "REV_AT_EPOCH": 7, "BSTAR": 0.00014053244, "MEAN_MOTION_DOT": 0.00737234, "MEAN_MOTION_DDOT": 7.156601e-06}, "tle": {"line1": "1 66877U 25282A   25337.63139932  .00737234  71566-5  14053-3 0  9991", "line2": "2 66877  56.9533  91.9802 0880196 204.5050 151.1619 14.36090880    74"}}, "geometry": {"type": "Point", "coordinates": [121.64778531297038, 39.568448627818924]}}]}